{
  "type": "FeatureCollection",
  "features": [
    {
      "type": "Feature",
      "properties": {
        "incident_id": "INC-401",
        "title": "Harbor gate outage",
        "category": "Infrastructure",
        "severity_band": "critical",
        "severity_score": 4,
        "status": "contained",
        "opened_at": "2026-05-01T16:05:00.000Z",
        "closed_at": "2026-05-01T16:41:00.000Z",
        "replay_at": "2026-05-01T16:05:00.000Z",
        "assigned_unit": "OPS-7",
        "zone_id": "harbor-corridor",
        "response_minutes": 6,
        "queue_minutes": 2,
        "priority_band": "Tier 1"
      },
      "geometry": {
        "type": "Point",
        "coordinates": [
          -157.8734,
          21.3048
        ]
      }
    },
    {
      "type": "Feature",
      "properties": {
        "incident_id": "INC-402",
        "title": "Pier fuel spill follow-up",
        "category": "Hazmat",
        "severity_band": "high",
        "severity_score": 3,
        "status": "monitoring",
        "opened_at": "2026-05-01T16:16:00.000Z",
        "closed_at": null,
        "replay_at": "2026-05-01T16:16:00.000Z",
        "assigned_unit": "MED-4",
        "zone_id": "harbor-corridor",
        "response_minutes": 9,
        "queue_minutes": 4,
        "priority_band": "Tier 2"
      },
      "geometry": {
        "type": "Point",
        "coordinates": [
          -157.8892,
          21.3212
        ]
      }
    },
    {
      "type": "Feature",
      "properties": {
        "incident_id": "INC-403",
        "title": "Ala Moana power transfer",
        "category": "Utilities",
        "severity_band": "high",
        "severity_score": 3,
        "status": "active",
        "opened_at": "2026-05-01T16:32:00.000Z",
        "closed_at": null,
        "replay_at": "2026-05-01T16:32:00.000Z",
        "assigned_unit": "ENG-2",
        "zone_id": "urban-core",
        "response_minutes": 7,
        "queue_minutes": 3,
        "priority_band": "Tier 2"
      },
      "geometry": {
        "type": "Point",
        "coordinates": [
          -157.8465,
          21.2908
        ]
      }
    },
    {
      "type": "Feature",
      "properties": {
        "incident_id": "INC-404",
        "title": "Kalihi signal failure",
        "category": "Traffic",
        "severity_band": "moderate",
        "severity_score": 2,
        "status": "resolved",
        "opened_at": "2026-05-01T16:47:00.000Z",
        "closed_at": "2026-05-01T17:21:00.000Z",
        "replay_at": "2026-05-01T16:47:00.000Z",
        "assigned_unit": "OPS-7",
        "zone_id": "harbor-corridor",
        "response_minutes": 11,
        "queue_minutes": 5,
        "priority_band": "Tier 3"
      },
      "geometry": {
        "type": "Point",
        "coordinates": [
          -157.8788,
          21.3374
        ]
      }
    },
    {
      "type": "Feature",
      "properties": {
        "incident_id": "INC-405",
        "title": "Waikiki medical assist",
        "category": "Medical",
        "severity_band": "critical",
        "severity_score": 4,
        "status": "active",
        "opened_at": "2026-05-01T17:02:00.000Z",
        "closed_at": null,
        "replay_at": "2026-05-01T17:02:00.000Z",
        "assigned_unit": "MED-4",
        "zone_id": "east-corridor",
        "response_minutes": 8,
        "queue_minutes": 2,
        "priority_band": "Tier 1"
      },
      "geometry": {
        "type": "Point",
        "coordinates": [
          -157.8255,
          21.2786
        ]
      }
    },
    {
      "type": "Feature",
      "properties": {
        "incident_id": "INC-406",
        "title": "Manoa hillside dispatch",
        "category": "Rescue",
        "severity_band": "high",
        "severity_score": 3,
        "status": "monitoring",
        "opened_at": "2026-05-01T17:24:00.000Z",
        "closed_at": null,
        "replay_at": "2026-05-01T17:24:00.000Z",
        "assigned_unit": "ENG-2",
        "zone_id": "east-corridor",
        "response_minutes": 10,
        "queue_minutes": 4,
        "priority_band": "Tier 2"
      },
      "geometry": {
        "type": "Point",
        "coordinates": [
          -157.8046,
          21.3054
        ]
      }
    }
  ]
}
